[{"OBJECT_NAME":"OCO 2","OBJECT_ID":"2014-035A","EPOCH":"2026-03-09T22:15:57.149856","MEAN_MOTION":14.57095091,"ECCENTRICITY":0.00012283,"INCLINATION":98.2095,"RA_OF_ASC_NODE":11.7709,"ARG_OF_PERICENTER":93.7324,"MEAN_ANOMALY":266.4015,"EPHEMERIS_TYPE":0,"CLASSIFICATION_TYPE":"U","NORAD_CAT_ID":40059,"ELEMENT_SET_NO":999,"REV_AT_EPOCH":62159,"BSTAR":0.00017420866,"MEAN_MOTION_DOT":7.39e-6,"MEAN_MOTION_DDOT":0},{"OBJECT_NAME":"FENGYUN 1C DEB","OBJECT_ID":"1999-025ATA","EPOCH":"2026-03-09T06:35:46.419648","MEAN_MOTION":14.53932287,"ECCENTRICITY":0.00316888,"INCLINATION":98.6861,"RA_OF_ASC_NODE":181.4732,"ARG_OF_PERICENTER":226.3918,"MEAN_ANOMALY":133.4647,"EPHEMERIS_TYPE":0,"CLASSIFICATION_TYPE":"U","NORAD_CAT_ID":30740,"ELEMENT_SET_NO":999,"REV_AT_EPOCH":98904,"BSTAR":0.0028308681,"MEAN_MOTION_DOT":0.00011964,"MEAN_MOTION_DDOT":0}]
